[{"OBJECT_NAME":"GRUS-1E","OBJECT_ID":"2021-022D","EPOCH":"2026-03-09T21:59:56.793984","MEAN_MOTION":14.99580708,"ECCENTRICITY":0.00128752,"INCLINATION":97.5572,"RA_OF_ASC_NODE":316.384,"ARG_OF_PERICENTER":314.1526,"MEAN_ANOMALY":45.8638,"EPHEMERIS_TYPE":0,"CLASSIFICATION_TYPE":"U","NORAD_CAT_ID":47935,"ELEMENT_SET_NO":999,"REV_AT_EPOCH":27107,"BSTAR":0.00017718433,"MEAN_MOTION_DOT":2.125e-5,"MEAN_MOTION_DDOT":0},{"OBJECT_NAME":"STARLINK-34081","OBJECT_ID":"2025-102Y","EPOCH":"2026-03-09T22:00:01.999584","MEAN_MOTION":14.98343703,"ECCENTRICITY":0.00035553,"INCLINATION":70,"RA_OF_ASC_NODE":114.0075,"ARG_OF_PERICENTER":266.7262,"MEAN_ANOMALY":72.8225,"EPHEMERIS_TYPE":0,"CLASSIFICATION_TYPE":"U","NORAD_CAT_ID":64044,"ELEMENT_SET_NO":999,"REV_AT_EPOCH":576,"BSTAR":0.0026762072,"MEAN_MOTION_DOT":0.00031998,"MEAN_MOTION_DDOT":0}]
